NORAD_CAT_ID,OBJECT_NAME,OBJECT_TYPE,EPOCH,MEAN_MOTION,ECCENTRICITY,INCLINATION,RA_OF_ASC_NODE,ARG_OF_PERICENTER,MEAN_ANOMALY,BSTAR,MEAN_MOTION_DOT,MEAN_MOTION_DDOT,TLE_LINE0,TLE_LINE1,TLE_LINE2,SEMIMAJOR_AXIS,PERIOD,APOGEE,PERIGEE,DECAYED
51991.0,STARLINK-3652,PAYLOAD,2023-12-25 10:09:15,15.08845083,0.0001912,53.2178,54.1034,117.6369,242.4817,0.0001026,1.345e-05,0.0,0 STARLINK-3652,1 51991U 22025AM  23359.42309235  .00001345  00000-0  10260-3 0  9991,2 51991  53.2178  54.1034 0001912 117.6369 242.4817 15.08845083100580,6917.865,95.437,541.053,538.407,0.0
51991.0,STARLINK-3652,PAYLOAD,2023-12-25 13:20:00,15.08853793,0.0001743,53.2178,53.5071,107.3224,252.7959,0.00018854,2.715e-05,0.0,0 STARLINK-3652,1 51991U 22025AM  23359.55556658  .00002715  00000-0  18854-3 0  9997,2 51991  53.2178  53.5071 0001743 107.3224 252.7959 15.08853793 99510,6917.838,95.437,540.909,538.497,0.0
51991.0,STARLINK-3652,PAYLOAD,2023-12-26 03:38:30,15.08834568,0.0001267,53.2177,50.8291,97.0615,263.0521,-0.00011027,-2.042e-05,0.0,0 STARLINK-3652,1 51991U 22025AM  23360.15173916 -.00002042  00000-0 -11027-3 0  9997,2 51991  53.2177  50.8291 0001267  97.0615 263.0521 15.08834568100694,6917.897,95.438,540.638,538.885,0.0
51991.0,STARLINK-3652,PAYLOAD,2023-12-26 10:00:02,15.08839577,0.0001575,53.2174,49.6427,94.4721,265.6452,-1.9934e-05,-6.05e-06,0.0,0 STARLINK-3652,1 51991U 22025AM  23360.41669794 -.00000605  00000-0 -19934-4 0  9999,2 51991  53.2174  49.6427 0001575  94.4721 265.6452 15.08839577 99647,6917.882,95.438,540.836,538.657,0.0
51991.0,STARLINK-3652,PAYLOAD,2023-12-27 09:50:49,15.08846669,0.0001668,53.2171,45.182,95.3086,264.8097,0.00025499,3.773e-05,0.0,0 STARLINK-3652,1 51991U 22025AM  23361.41029788  .00003773  00000-0  25499-3 0  9992,2 51991  53.2171  45.1820 0001668  95.3086 264.8097 15.08846669 99791,6917.86,95.437,540.879,538.571,0.0
51991.0,STARLINK-3652,PAYLOAD,2023-12-28 03:20:04,15.08840514,0.0001725,53.2168,41.9108,87.0451,273.0738,0.00012826,1.754e-05,0.0,0 STARLINK-3652,1 51991U 22025AM  23362.13894094  .00001754  00000-0  12826-3 0  9999,2 51991  53.2168  41.9108 0001725  87.0451 273.0738 15.08840514100990,6917.879,95.438,540.937,538.55,0.0
51991.0,STARLINK-3652,PAYLOAD,2023-12-28 08:06:13,15.08839323,0.0001751,53.2177,41.0182,101.4069,258.712,0.00011001,1.463e-05,0.0,0 STARLINK-3652,1 51991U 22025AM  23362.33766092  .00001463  00000-0  11001-3 0  9998,2 51991  53.2177  41.0182 0001751 101.4069 258.7120 15.08839323 99930,6917.882,95.438,540.959,538.536,0.0
51991.0,STARLINK-3652,PAYLOAD,2023-12-29 03:10:52,15.08811739,0.000195,53.2178,37.45,101.2664,258.8547,0.00065962,0.00010217,0.0,0 STARLINK-3652,1 51991U 22025AM  23363.13255293  .00010217  00000-0  65962-3 0  9995,2 51991  53.2178  37.4500 0001950 101.2664 258.8547 15.08811739101146,6917.967,95.439,541.181,538.483,0.0
51991.0,STARLINK-3652,PAYLOAD,2023-12-29 07:57:01,15.0883728,0.0001748,53.2184,36.5577,100.5487,259.5702,3.7352e-05,3.06e-06,0.0,0 STARLINK-3652,1 51991U 22025AM  23363.33126558  .00000306  00000-0  37352-4 0  9999,2 51991  53.2184  36.5577 0001748 100.5487 259.5702 15.08837280101170,6917.889,95.438,540.963,538.544,0.0
51991.0,STARLINK-3652,PAYLOAD,2023-12-30 10:58:34,15.08842937,0.0001631,53.2182,31.5026,94.6809,265.4369,0.00014008,1.942e-05,0.0,0 STARLINK-3652,1 51991U 22025AM  23364.45734183  .00001942  00000-0  14008-3 0  9991,2 51991  53.2182  31.5026 0001631  94.6809 265.4369 15.08842937101343,6917.871,95.437,540.865,538.608,0.0
51991.0,STARLINK-3652,PAYLOAD,2023-12-30 23:41:40,15.08834341,0.0001677,53.2182,29.1229,103.0518,257.0661,7.3197e-05,8.77e-06,0.0,0 STARLINK-3652,1 51991U 22025AM  23364.98726904  .00000877  00000-0  73197-4 0  9992,2 51991  53.2182  29.1229 0001677 103.0518 257.0661 15.08834341101424,6917.898,95.438,540.923,538.603,0.0
51991.0,STARLINK-3652,PAYLOAD,2023-12-31 10:49:21,15.08837829,0.000146,53.2173,27.0383,95.0129,265.103,4.5051e-05,4.29e-06,0.0,0 STARLINK-3652,1 51991U 22025AM  23365.45094870  .00000429  00000-0  45051-4 0  9996,2 51991  53.2173  27.0383 0001460  95.0129 265.1030 15.08837829100401,6917.887,95.438,540.762,538.742,0.0
51991.0,STARLINK-3652,PAYLOAD,2024-01-01 09:04:45,15.08849767,0.0001552,53.2176,22.8767,87.6547,272.4623,8.0213e-05,9.89e-06,0.0,0 STARLINK-3652,1 51991U 22025AM  24001.37830166  .00000989  00000-0  80213-4 0  9991,2 51991  53.2176  22.8767 0001552  87.6547 272.4623 15.08849767101635,6917.851,95.437,540.789,538.642,0.0
51991.0,STARLINK-3652,PAYLOAD,2024-01-02 00:58:37,15.08835049,0.0001718,53.2178,19.9072,75.9054,284.2129,0.00018761,2.699e-05,0.0,0 STARLINK-3652,1 51991U 22025AM  24002.04070787  .00002699  00000-0  18761-3 0  9999,2 51991  53.2178  19.9072 0001718  75.9054 284.2129 15.08835049101731,6917.896,95.438,540.949,538.572,0.0
51991.0,STARLINK-3652,PAYLOAD,2024-01-02 07:20:09,15.08840788,0.0001662,53.2175,18.717,80.1618,279.9561,0.00010717,1.418e-05,0.0,0 STARLINK-3652,1 51991U 22025AM  24002.30566695  .00001418  00000-0  10717-3 0  9997,2 51991  53.2175  18.7170 0001662  80.1618 279.9561 15.08840788100686,6917.878,95.438,540.893,538.593,0.0
51991.0,STARLINK-3652,PAYLOAD,2024-01-03 04:00:12,15.08825868,0.0001427,53.2183,14.852,93.1107,267.0048,-0.00010745,-1.997e-05,0.0,0 STARLINK-3652,1 51991U 22025AM  24003.16680701 -.00001997  00000-0 -10745-3 0  9992,2 51991  53.2183  14.8520 0001427  93.1107 267.0048 15.08825868101903,6917.924,95.438,540.776,538.801,0.0
51991.0,STARLINK-3652,PAYLOAD,2024-01-03 07:10:57,15.08835791,0.0001476,53.2185,14.2577,84.3488,275.7673,-2.3547e-05,-6.63e-06,0.0,0 STARLINK-3652,1 51991U 22025AM  24003.29927997 -.00000663  00000-0 -23547-4 0  9991,2 51991  53.2185  14.2577 0001476  84.3488 275.7673 15.08835791101927,6917.893,95.438,540.779,538.737,0.0
51991.0,STARLINK-3652,PAYLOAD,2024-01-04 03:50:57,15.08844575,0.0001451,53.2177,10.3931,71.3201,288.7949,0.00013458,1.855e-05,0.0,0 STARLINK-3652,1 51991U 22025AM  24004.16039130  .00001855  00000-0  13458-3 0  9992,2 51991  53.2177  10.3931 0001451  71.3201 288.7949 15.08844575102056,6917.866,95.437,540.735,538.728,0.0
51991.0,STARLINK-3652,PAYLOAD,2024-01-04 05:26:20,15.08845965,0.0001449,53.2182,10.097,62.3018,297.8121,0.00015286,2.146e-05,0.0,0 STARLINK-3652,1 51991U 22025AM  24004.22662968  .00002146  00000-0  15286-3 0  9995,2 51991  53.2182  10.0970 0001449  62.3018 297.8121 15.08845965100971,6917.862,95.437,540.73,538.725,0.0
51991.0,STARLINK-3652,PAYLOAD,2024-01-05 03:41:45,15.0881729,0.0002054,53.2189,5.9319,127.5476,232.5703,0.00039867,6.059e-05,0.0,0 STARLINK-3652,1 51991U 22025AM  24005.15399840  .00006059  00000-0  39867-3 0  9992,2 51991  53.2189   5.9319 0002054 127.5476 232.5703 15.08817290102203,6917.95,95.439,541.236,538.394,0.0
51991.0,STARLINK-3652,PAYLOAD,2024-01-05 06:52:31,15.08819514,0.0001577,53.2181,5.3333,117.4313,242.684,0.00039385,5.982e-05,0.0,0 STARLINK-3652,1 51991U 22025AM  24005.28647920  .00005982  00000-0  39385-3 0  9990,2 51991  53.2181   5.3333 0001577 117.4313 242.6840 15.08819514101138,6917.943,95.439,540.899,538.717,0.0
51991.0,STARLINK-3652,PAYLOAD,2024-01-06 03:32:31,15.088513,0.0001443,53.218,1.4667,106.7965,253.3186,-2.1646e-05,-6.33e-06,0.0,0 STARLINK-3652,1 51991U 22025AM  24006.14759074 -.00000633  00000-0 -21646-4 0  9992,2 51991  53.2180   1.4667 0001443 106.7965 253.3186 15.08851300102356,6917.846,95.437,540.709,538.713,0.0
51991.0,STARLINK-3652,PAYLOAD,2024-01-06 05:07:54,15.08853056,0.0001379,53.2178,1.168,102.74,257.3746,-2.2004e-05,-6.38e-06,0.0,0 STARLINK-3652,1 51991U 22025AM  24006.21382928 -.00000638  00000-0 -22004-4 0  9994,2 51991  53.2178   1.1680 0001379 102.7400 257.3746 15.08853056101279,6917.84,95.437,540.659,538.752,0.0
51991.0,STARLINK-3652,PAYLOAD,2024-01-07 03:23:19,15.08838279,0.000133,53.2178,357.0071,97.5487,262.5656,1.6593e-06,-2.61e-06,0.0,0 STARLINK-3652,1 51991U 22025AM  24007.14119519 -.00000261  00000-0  16593-5 0  9999,2 51991  53.2178 357.0071 0001330  97.5487 262.5656 15.08838279102504,6917.886,95.438,540.671,538.831,0.0
51991.0,STARLINK-3652,PAYLOAD,2024-01-07 06:34:05,15.08842551,0.0001482,53.218,356.4123,96.2214,263.8947,-1.4092e-05,-5.12e-06,0.0,0 STARLINK-3652,1 51991U 22025AM  24007.27367346 -.00000512  00000-0 -14092-4 0  9997,2 51991  53.2180 356.4123 0001482  96.2214 263.8947 15.08842551101436,6917.873,95.437,540.763,538.712,0.0
51991.0,STARLINK-3652,PAYLOAD,2024-01-08 08:00:14,15.08847458,0.0001353,53.2181,351.6573,98.5221,261.5925,9.4076e-05,1.21e-05,0.0,0 STARLINK-3652,1 51991U 22025AM  24008.33350668  .00001210  00000-0  94076-4 0  9998,2 51991  53.2181 351.6573 0001353  98.5221 261.5925 15.08847458102683,6917.858,95.437,540.659,538.787,0.0
51991.0,STARLINK-3652,PAYLOAD,2024-01-09 03:04:53,15.08835881,0.0001413,53.2184,348.086,96.3866,263.7287,4.0549e-05,3.57e-06,0.0,0 STARLINK-3652,1 51991U 22025AM  24009.12839676  .00000357  00000-0  40549-4 0  9994,2 51991  53.2184 348.0860 0001413  96.3866 263.7287 15.08835881102809,6917.893,95.438,540.735,538.78,0.0
51991.0,STARLINK-3652,PAYLOAD,2024-01-09 07:51:02,15.08840939,0.0001443,53.218,347.1946,94.2421,265.8736,8.3163e-05,1.036e-05,0.0,0 STARLINK-3652,1 51991U 22025AM  24009.32711310  .00001036  00000-0  83163-4 0  9994,2 51991  53.2180 347.1946 0001443  94.2421 265.8736 15.08840939101741,6917.878,95.437,540.741,538.744,0.0
51991.0,STARLINK-3652,PAYLOAD,2024-01-09 22:09:30,15.08846212,0.000154,53.2184,344.5168,109.9086,250.2072,2.1611e-06,-2.54e-06,0.0,0 STARLINK-3652,1 51991U 22025AM  24009.92327243 -.00000254  00000-0  21611-5 0  9991,2 51991  53.2184 344.5168 0001540 109.9086 250.2072 15.08846212101832,6917.861,95.437,540.792,538.661,0.0
51991.0,STARLINK-3652,PAYLOAD,2024-01-10 02:55:39,15.08850317,0.000147,53.2169,343.6289,100.9151,259.2007,4.7442e-05,4.67e-06,0.0,0 STARLINK-3652,1 51991U 22025AM  24010.12198789  .00000467  00000-0  47442-4 0  9990,2 51991  53.2169 343.6289 0001470 100.9151 259.2007 15.08850317102957,6917.849,95.437,540.731,538.697,0.0
